GPS BIIR-2  (PRN 13)    
1 24876U 97035A   23300.44582771  .00000084  00000+0  00000+0 0  9997
2 24876  55.6016 136.2691 0074554  53.3753 307.3865  2.00564424192620
GPS BIIR-4  (PRN 20)    
1 26360U 00025A   23300.79294067 -.00000065  00000+0  00000+0 0  9996
2 26360  54.4778  58.4152 0041849 202.6195 138.7100  2.00566963171949
GPS BIIR-5  (PRN 22)    
1 26407U 00040A   23300.79353009 -.00000033  00000+0  00000+0 0  9992
2 26407  55.1769 253.4735 0153302 292.4101 252.0154  2.00556894170620
GPS BIIR-8  (PRN 16)    
1 27663U 03005A   23300.59881098 -.00000034  00000+0  00000+0 0  9994
2 27663  55.2185 253.2919 0133969  45.0306 134.9937  2.00562851151970
GPS BIIR-9  (PRN 21)    
1 27704U 03010A   23300.60402971 -.00000096  00000+0  00000+0 0  9995
2 27704  55.1151   3.2210 0250087 319.8739  83.0658  2.00553494150783
GPS BIIR-11 (PRN 19)    
1 28190U 04009A   23300.65634469 -.00000053  00000+0  00000+0 0  9991
2 28190  55.6495 314.3478 0092278 140.8676 237.3000  2.00565571143628
GPS BIIR-13 (PRN 02)    
1 28474U 04045A   23300.63981344 -.00000096  00000+0  00000+0 0  9998
2 28474  55.4426   3.5591 0163794 283.9194 135.9924  2.00556576139105
GPS BIIRM-1 (PRN 17)    
1 28874U 05038A   23300.66149615 -.00000051  00000+0  00000+0 0  9996
2 28874  55.6998 311.8012 0140435 280.5427 124.2483  2.00571752132519
GPS BIIRM-2 (PRN 31)    
1 29486U 06042A   23300.76079508  .00000037  00000+0  00000+0 0  9999
2 29486  54.6797 189.5387 0104296  33.9763 343.4275  2.00566940125078
GPS BIIRM-3 (PRN 12)    
1 29601U 06052A   23300.16255269 -.00000034  00000+0  00000+0 0  9991
2 29601  55.2413 252.2720 0084300  79.5264 281.3944  2.00552291124079
GPS BIIRM-4 (PRN 15)    
1 32260U 07047A   23300.47706172  .00000064  00000+0  00000+0 0  9991
2 32260  53.4908 119.9375 0152814  71.9410 289.7677  2.00548897117482
GPS BIIRM-5 (PRN 29)    
1 32384U 07062A   23300.55608464 -.00000050  00000+0  00000+0 0  9995
2 32384  55.8333 312.6344 0024266 152.3614  36.3859  2.00561343116189
GPS BIIRM-6 (PRN 07)    
1 32711U 08012A   23300.38934965  .00000036  00000+0  00000+0 0  9997
2 32711  54.4479 188.3721 0177870 236.1613 122.2110  2.00558950114426
GPS BIIRM-8 (PRN 05)    
1 35752U 09043A   23300.38276969 -.00000047  00000+0  00000+0 0  9996
2 35752  55.4794  65.6002 0057303  70.2301 301.2428  2.00554848104032
GPS BIIF-1  (PRN 25)    
1 36585U 10022A   23300.72347678 -.00000031  00000+0  00000+0 0  9997
2 36585  54.5416 247.4314 0111456  59.7880 315.7323  2.00564605 98272
GPS BIIF-3  (PRN 24)    
1 38833U 12053A   23300.56396915  .00000044  00000+0  00000+0 0  9994
2 38833  53.5098 183.0178 0145461  53.0684 308.3429  2.00568027 80111
GPS BIIF-4  (PRN 27)    
1 39166U 13023A   23300.42742091 -.00000048  00000+0  00000+0 0  9992
2 39166  55.3147 307.9853 0115753  41.5279 319.3715  2.00564092 76557
GPS BIIF-5  (PRN 30)    
1 39533U 14008A   23300.42851029  .00000035  00000+0  00000+0 0  9991
2 39533  53.5959 188.5886 0067052 215.3755 144.2554  2.00554606 70351
GPS BIIF-6  (PRN 06)    
1 39741U 14026A   23300.71035924 -.00000097  00000+0  00000+0 0  9991
2 39741  56.7014   8.9207 0030853 309.4614  50.3162  2.00553269 69218
GPS BIIF-7  (PRN 09)    
1 40105U 14045A   23299.79648387  .00000083  00000+0  00000+0 0  9990
2 40105  54.8339 126.9753 0027414 114.8249 245.5251  2.00550296 66739
GPS BIIF-8  (PRN 03)    
1 40294U 14068A   23300.16915991 -.00000038  00000+0  00000+0 0  9997
2 40294  56.2236  68.3907 0048914  62.8581 297.6224  2.00575163 65871
GPS BIIF-9  (PRN 26)    
1 40534U 15013A   23300.30991316 -.00000033  00000+0  00000+0 0  9991
2 40534  53.4399 244.0954 0083161  26.3806 334.0168  2.00551251 62490
GPS BIIF-10 (PRN 08)    
1 40730U 15033A   23300.47179724 -.00000049  00000+0  00000+0 0  9997
2 40730  54.8022 306.5718 0087489  14.1218 346.1429  2.00552289 60660
GPS BIIF-11 (PRN 10)    
1 41019U 15062A   23300.52240541 -.00000041  00000+0  00000+0 0  9994
2 41019  56.2070  68.2280 0091554 221.6351 137.6494  2.00562146 58505
GPS BIIF-12 (PRN 32)    
1 41328U 16007A   23300.61092860  .00000075  00000+0  00000+0 0  9992
2 41328  55.0370 127.7331 0072458 233.5646 125.8260  2.00573105 56513
GPS BIII-1  (PRN 04)    
1 43873U 18109A   23300.66791103  .00000077  00000+0  00000+0 0  9997
2 43873  55.2120 130.2572 0026833 189.7793 105.8275  2.00570496 35748
GPS BIII-2  (PRN 18)    
1 44506U 19056A   23300.63013576 -.00000098  00000+0  00000+0 0  9995
2 44506  55.8273   9.3310 0038352 187.9856 338.9621  2.00566301 30741
GPS BIII-3  (PRN 23)    
1 45854U 20041A   23300.67598983 -.00000046  00000+0  00000+0 0  9995
2 45854  55.9288  66.6199 0038243 188.0648 314.8430  2.00561937 24717
GPS BIII-4  (PRN 14)    
1 46826U 20078A   23300.69701400 -.00000033  00000+0  00000+0 0  9993
2 46826  54.2860 249.8970 0037009 194.6978 299.2046  2.00562618 22180
GPS BIII-5  (PRN 11)    
1 48859U 21054A   23300.73789774 -.00000100  00000+0  00000+0 0  9996
2 48859  55.3464  11.0871 0013744 217.0140 130.1579  2.00570343 17429
GPS BIII-6  (PRN 28)    
1 55268U 23009A   23300.43402619  .00000041  00000+0  00000+0 0  9990
2 55268  55.0860 186.3332 0005241  89.5020  76.4462  2.00551878  5914
